[{"OBJECT_NAME":"STARLINK-32877","OBJECT_ID":"2025-029N","EPOCH":"2026-03-09T16:31:39.662400","MEAN_MOTION":15.30225234,"ECCENTRICITY":0.00014495,"INCLINATION":53.1575,"RA_OF_ASC_NODE":232.7287,"ARG_OF_PERICENTER":113.6771,"MEAN_ANOMALY":246.4382,"EPHEMERIS_TYPE":0,"CLASSIFICATION_TYPE":"U","NORAD_CAT_ID":62960,"ELEMENT_SET_NO":999,"REV_AT_EPOCH":6129,"BSTAR":0.00054166834,"MEAN_MOTION_DOT":0.0001573,"MEAN_MOTION_DDOT":0},{"OBJECT_NAME":"GEOSCAN 4 (RS92S4)","OBJECT_ID":"2025-155S","EPOCH":"2026-03-09T21:50:07.724832","MEAN_MOTION":15.30369837,"ECCENTRICITY":0.00070968,"INCLINATION":97.4465,"RA_OF_ASC_NODE":37.7626,"ARG_OF_PERICENTER":154.7045,"MEAN_ANOMALY":205.4544,"EPHEMERIS_TYPE":0,"CLASSIFICATION_TYPE":"U","NORAD_CAT_ID":64892,"ELEMENT_SET_NO":999,"REV_AT_EPOCH":6562,"BSTAR":0.00068609503,"MEAN_MOTION_DOT":0.00020121,"MEAN_MOTION_DDOT":0}]
